NORAD_CAT_ID,OBJECT_NAME,OBJECT_TYPE,EPOCH,MEAN_MOTION,ECCENTRICITY,INCLINATION,RA_OF_ASC_NODE,ARG_OF_PERICENTER,MEAN_ANOMALY,BSTAR,MEAN_MOTION_DOT,MEAN_MOTION_DDOT,TLE_LINE0,TLE_LINE1,TLE_LINE2,SEMIMAJOR_AXIS,PERIOD,APOGEE,PERIGEE,DECAYED
49457.0,STARLINK-3132,PAYLOAD,2024-07-05 03:16:47,15.08852443,0.0001546,53.2162,88.9899,88.8903,271.2266,0.00062021,9.6e-05,0.0,0 STARLINK-3132,1 49457U 21104BB  24187.13666143  .00009600  00000-0  62021-3 0  9998,2 49457  53.2162  88.9899 0001546  88.8903 271.2266 15.08852443147371,6917.842,95.437,540.777,538.638,0.0
49457.0,STARLINK-3132,PAYLOAD,2024-07-05 20:46:02,15.08850493,0.0001322,53.2173,85.721,89.4415,270.6728,0.00062772,9.719e-05,0.0,0 STARLINK-3132,1 49457U 21104BB  24187.86530295  .00009719  00000-0  62772-3 0  9990,2 49457  53.2173  85.7210 0001322  89.4415 270.6728 15.08850493147483,6917.848,95.437,540.628,538.799,0.0
49457.0,STARLINK-3132,PAYLOAD,2024-07-05 22:21:25,15.08848,0.0001356,53.2171,85.4237,100.9768,259.1376,0.00048102,7.377e-05,0.0,0 STARLINK-3132,1 49457U 21104BB  24187.93154248  .00007377  00000-0  48102-3 0  9997,2 49457  53.2171  85.4237 0001356 100.9768 259.1376 15.08848000146429,6917.856,95.437,540.659,538.783,0.0
49457.0,STARLINK-3132,PAYLOAD,2024-07-06 03:07:34,15.08840214,0.0001294,53.2174,84.5308,93.3318,266.7822,0.00036801,5.574e-05,0.0,0 STARLINK-3132,1 49457U 21104BB  24188.13026412  .00005574  00000-0  36801-3 0  9991,2 49457  53.2174  84.5308 0001294  93.3318 266.7822 15.08840214147529,6917.88,95.438,540.64,538.85,0.0
49457.0,STARLINK-3132,PAYLOAD,2024-07-06 20:36:49,15.08835718,0.0001334,53.2175,81.2594,95.3264,264.788,0.00011623,1.562e-05,0.0,0 STARLINK-3132,1 49457U 21104BB  24188.85890768  .00001562  00000-0  11623-3 0  9991,2 49457  53.2175  81.2594 0001334  95.3264 264.7880 15.08835718147635,6917.893,95.438,540.681,538.836,0.0
49457.0,STARLINK-3132,PAYLOAD,2024-07-06 22:12:12,15.08836567,0.0001351,53.2172,80.9622,93.9368,266.1779,7.0654e-05,8.37e-06,0.0,0 STARLINK-3132,1 49457U 21104BB  24188.92514757  .00000837  00000-0  70654-4 0  9994,2 49457  53.2172  80.9622 0001351  93.9368 266.1779 15.08836567146576,6917.891,95.438,540.69,538.821,0.0
49457.0,STARLINK-3132,PAYLOAD,2024-07-07 09:19:53,15.08852231,0.0001374,53.2182,78.8836,94.9182,265.1967,0.00018595,2.674e-05,0.0,0 STARLINK-3132,1 49457U 21104BB  24189.38881928  .00002674  00000-0  18595-3 0  9998,2 49457  53.2182  78.8836 0001374  94.9182 265.1967 15.08852231147711,6917.843,95.437,540.659,538.757,0.0
49457.0,STARLINK-3132,PAYLOAD,2024-07-08 09:10:40,15.08862592,0.0001392,53.2178,74.4231,96.8636,263.2514,0.000329,4.955e-05,0.0,0 STARLINK-3132,1 49457U 21104BB  24190.38240753  .00004955  00000-0  32900-3 0  9995,2 49457  53.2178  74.4231 0001392  96.8636 263.2514 15.08862592146797,6917.811,95.436,540.639,538.713,0.0
49457.0,STARLINK-3132,PAYLOAD,2024-07-08 20:18:23,15.08825786,0.0001447,53.2171,72.3389,97.4556,262.6601,-0.00039896,-6.629e-05,0.0,0 STARLINK-3132,1 49457U 21104BB  24190.84610211 -.00006629  00000-0 -39896-3 0  9999,2 49457  53.2171  72.3389 0001447  97.4556 262.6601 15.08825786147931,6917.924,95.438,540.79,538.788,0.0
49457.0,STARLINK-3132,PAYLOAD,2024-07-08 21:53:46,15.08826374,0.0001418,53.2172,72.0416,93.0677,267.0478,-0.00038182,-6.357e-05,0.0,0 STARLINK-3132,1 49457U 21104BB  24190.91234178 -.00006357  00000-0 -38182-3 0  9996,2 49457  53.2172  72.0416 0001418  93.0677 267.0478 15.08826374146871,6917.922,95.438,540.768,538.806,0.0
49457.0,STARLINK-3132,PAYLOAD,2024-07-09 01:04:32,15.08833884,0.0001612,53.2183,71.4491,102.1523,257.965,-0.00020295,-3.516e-05,0.0,0 STARLINK-3132,1 49457U 21104BB  24191.04482252 -.00003516  00000-0 -20295-3 0  9999,2 49457  53.2183  71.4491 0001612 102.1523 257.9650 15.08833884147962,6917.899,95.438,540.879,538.649,0.0
49457.0,STARLINK-3132,PAYLOAD,2024-07-09 21:44:33,15.08836442,0.0001508,53.2169,67.5826,101.9539,258.1622,0.00077181,0.00012015,0.0,0 STARLINK-3132,1 49457U 21104BB  24191.90594738  .00012015  00000-0  77181-3 0  9995,2 49457  53.2169  67.5826 0001508 101.9539 258.1622 15.08836442147024,6917.891,95.438,540.799,538.713,0.0
49457.0,STARLINK-3132,PAYLOAD,2024-07-10 00:55:20,15.0884731,0.0001413,53.2165,66.987,99.7697,260.3455,0.0010673,0.00016742,0.0,0 STARLINK-3132,1 49457U 21104BB  24192.03842594  .00016742  00000-0  10673-2 0  9999,2 49457  53.2165  66.9870 0001413  99.7697 260.3455 15.08847310148112,6917.858,95.437,540.701,538.746,0.0
49457.0,STARLINK-3132,PAYLOAD,2024-07-10 08:52:15,15.08858955,0.0001509,53.2183,65.4993,86.2902,273.8263,0.0012426,0.00019554,0.0,0 STARLINK-3132,1 49457U 21104BB  24192.36962101  .00019554  00000-0  12426-2 0  9994,2 49457  53.2183  65.4993 0001509  86.2902 273.8263 15.08858955147097,6917.822,95.436,540.731,538.644,0.0
49457.0,STARLINK-3132,PAYLOAD,2024-07-10 21:35:20,15.08834891,0.0001333,53.2165,63.1214,91.03,269.0845,3.2587e-05,2.31e-06,0.0,0 STARLINK-3132,1 49457U 21104BB  24192.89954737  .00000231  00000-0  32587-4 0  9992,2 49457  53.2165  63.1214 0001333  91.0300 269.0845 15.08834891147174,6917.896,95.438,540.683,538.839,0.0
49457.0,STARLINK-3132,PAYLOAD,2024-07-11 00:46:07,15.08837819,0.0001152,53.2161,62.526,91.9052,268.2072,0.00027774,4.135e-05,0.0,0 STARLINK-3132,1 49457U 21104BB  24193.03202703  .00004135  00000-0  27774-3 0  9996,2 49457  53.2161  62.5260 0001152  91.9052 268.2072 15.08837819148263,6917.887,95.438,540.549,538.955,0.0
49457.0,STARLINK-3132,PAYLOAD,2024-07-11 21:26:08,15.08847678,0.0001056,53.2157,58.6582,92.9216,267.1897,0.00095295,0.00014914,0.0,0 STARLINK-3132,1 49457U 21104BB  24193.89315107  .00014914  00000-0  95295-3 0  9992,2 49457  53.2157  58.6582 0001056  92.9216 267.1897 15.08847678147320,6917.857,95.437,540.452,538.991,0.0
49457.0,STARLINK-3132,PAYLOAD,2024-07-12 08:33:49,15.08859043,0.0001049,53.2161,56.5772,89.9087,270.2025,0.00091067,0.00014243,0.0,0 STARLINK-3132,1 49457U 21104BB  24194.35682705  .00014243  00000-0  91067-3 0  9993,2 49457  53.2161  56.5772 0001049  89.9087 270.2025 15.08859043148460,6917.822,95.436,540.413,538.962,0.0
49457.0,STARLINK-3132,PAYLOAD,2024-07-12 21:16:55,15.08841889,0.0001297,53.2165,54.1983,93.7947,266.3193,0.00026664,3.958e-05,0.0,0 STARLINK-3132,1 49457U 21104BB  24194.88675039  .00003958  00000-0  26664-3 0  9995,2 49457  53.2165  54.1983 0001297  93.7947 266.3193 15.08841889148545,6917.875,95.437,540.637,538.842,0.0
49457.0,STARLINK-3132,PAYLOAD,2024-07-13 00:27:41,15.08844842,0.0001381,53.2167,53.6033,96.3245,263.7905,0.00050566,7.77e-05,0.0,0 STARLINK-3132,1 49457U 21104BB  24195.01923053  .00007770  00000-0  50566-3 0  9997,2 49457  53.2167  53.6033 0001381  96.3245 263.7905 15.08844842147498,6917.866,95.437,540.686,538.775,0.0
49457.0,STARLINK-3132,PAYLOAD,2024-07-13 21:07:42,15.08845945,0.0001307,53.217,49.7384,80.7286,279.3854,0.0004485,6.858e-05,0.0,0 STARLINK-3132,1 49457U 21104BB  24195.88035307  .00006858  00000-0  44850-3 0  9993,2 49457  53.2170  49.7384 0001307  80.7286 279.3854 15.08845945148691,6917.862,95.437,540.631,538.823,0.0
49457.0,STARLINK-3132,PAYLOAD,2024-07-14 14:36:56,15.08847219,0.0001243,53.2173,46.4672,76.2597,283.8534,0.00036191,5.478e-05,0.0,0 STARLINK-3132,1 49457U 21104BB  24196.60899249  .00005478  00000-0  36191-3 0  9993,2 49457  53.2173  46.4672 0001243  76.2597 283.8534 15.08847219147737,6917.858,95.437,540.583,538.863,0.0
49457.0,STARLINK-3132,PAYLOAD,2024-07-14 20:58:29,15.08844644,0.0001178,53.2171,45.2779,76.861,283.2513,0.0002161,3.153e-05,0.0,0 STARLINK-3132,1 49457U 21104BB  24196.87395319  .00003153  00000-0  21610-3 0  9999,2 49457  53.2171  45.2779 0001178  76.8610 283.2513 15.08844644148842,6917.866,95.437,540.546,538.916,0.0
49457.0,STARLINK-3132,PAYLOAD,2024-07-15 06:30:47,15.08860414,0.0001139,53.2176,43.4916,76.5261,283.5858,0.00047516,7.287e-05,0.0,0 STARLINK-3132,1 49457U 21104BB  24197.27138524  .00007287  00000-0  47516-3 0  9992,2 49457  53.2176  43.4916 0001139  76.5261 283.5858 15.08860414148901,6917.818,95.436,540.471,538.895,0.0
49457.0,STARLINK-3132,PAYLOAD,2024-07-15 20:49:16,15.08833378,0.0001369,53.2175,40.8214,94.3155,265.7993,-5.5598e-05,-1.172e-05,0.0,0 STARLINK-3132,1 49457U 21104BB  24197.86755691 -.00001172  00000-0 -55598-4 0  9996,2 49457  53.2175  40.8214 0001369  94.3155 265.7993 15.08833378148997,6917.901,95.438,540.713,538.819,0.0
49457.0,STARLINK-3132,PAYLOAD,2024-07-15 22:24:39,15.08836685,0.0001371,53.2178,40.5225,85.532,274.5828,1.8548e-05,7e-08,0.0,0 STARLINK-3132,1 49457U 21104BB  24197.93379590  .00000007  00000-0  18548-4 0  9992,2 49457  53.2178  40.5225 0001371  85.5320 274.5828 15.08836685147930,6917.891,95.438,540.704,538.807,0.0
49457.0,STARLINK-3132,PAYLOAD,2024-07-16 06:21:35,15.08852767,0.0001326,53.2178,39.0355,87.3091,272.8053,0.00058463,9.032e-05,0.0,0 STARLINK-3132,1 49457U 21104BB  24198.26499139  .00009032  00000-0  58463-3 0  9997,2 49457  53.2178  39.0355 0001326  87.3091 272.8053 15.08852767149057,6917.841,95.437,540.624,538.789,0.0
49457.0,STARLINK-3132,PAYLOAD,2024-07-16 20:40:03,15.08847593,0.0001413,53.2181,36.3597,85.4381,274.6772,0.00025211,3.727e-05,0.0,0 STARLINK-3132,1 49457U 21104BB  24198.86115462  .00003727  00000-0  25211-3 0  9997,2 49457  53.2181  36.3597 0001413  85.4381 274.6772 15.08847593148077,6917.857,95.437,540.7,538.745,0.0
49457.0,STARLINK-3132,PAYLOAD,2024-07-16 23:50:49,15.08849335,0.0001403,53.2181,35.7653,84.6738,275.4414,0.00037728,5.723e-05,0.0,0 STARLINK-3132,1 49457U 21104BB  24198.99363223  .00005723  00000-0  37728-3 0  9995,2 49457  53.2181  35.7653 0001403  84.6738 275.4414 15.08849335149168,6917.852,95.437,540.687,538.746,0.0
49457.0,STARLINK-3132,PAYLOAD,2024-07-17 06:12:22,15.08855252,0.0001403,53.2176,34.5732,84.5296,275.5856,0.00070481,0.00010952,0.0,0 STARLINK-3132,1 49457U 21104BB  24199.25859036  .00010952  00000-0  70481-3 0  9990,2 49457  53.2176  34.5732 0001403  84.5296 275.5856 15.08855252148137,6917.834,95.437,540.669,538.728,0.0
